CCSDS_OMM_VERS = 2.0
CREATION_DATE  = 
ORIGINATOR     = 

OBJECT_NAME    = TRANSPORTER-15CY
OBJECT_ID      = 2025-276CY
CENTER_NAME    = EARTH
REF_FRAME      = TEME
TIME_SYSTEM    = UTC
MEAN_ELEMENT_THEORY = SGP/SGP4

EPOCH          = 2025-12-25T17:11:08.492064
MEAN_MOTION    = 15.18222168
ECCENTRICITY   = .0001753
INCLINATION    = 97.4392
RA_OF_ASC_NODE = 71.2801
ARG_OF_PERICENTER = 112.2879
MEAN_ANOMALY   = 247.8541

EPHEMERIS_TYPE = 0
CLASSIFICATION_TYPE = U
NORAD_CAT_ID   = 66760
ELEMENT_SET_NO = 999
REV_AT_EPOCH   = 409
BSTAR          = .32414E-3
MEAN_MOTION_DOT = .6567E-4
MEAN_MOTION_DDOT = 0

CCSDS_OMM_VERS = 2.0
CREATION_DATE  = 
ORIGINATOR     = 

OBJECT_NAME    = TRANSPORTER-15CZ
OBJECT_ID      = 2025-276CZ
CENTER_NAME    = EARTH
REF_FRAME      = TEME
TIME_SYSTEM    = UTC
MEAN_ELEMENT_THEORY = SGP/SGP4

EPOCH          = 2025-12-25T18:41:35.331360
MEAN_MOTION    = 15.18537851
ECCENTRICITY   = .0001742
INCLINATION    = 97.4390
RA_OF_ASC_NODE = 71.3487
ARG_OF_PERICENTER = 121.8213
MEAN_ANOMALY   = 238.3191

EPHEMERIS_TYPE = 0
CLASSIFICATION_TYPE = U
NORAD_CAT_ID   = 66761
ELEMENT_SET_NO = 999
REV_AT_EPOCH   = 410
BSTAR          = .52315E-3
MEAN_MOTION_DOT = .10743E-3
MEAN_MOTION_DDOT = 0

CCSDS_OMM_VERS = 2.0
CREATION_DATE  = 
ORIGINATOR     = 

OBJECT_NAME    = HYDROGNSS-1
OBJECT_ID      = 2025-276DA
CENTER_NAME    = EARTH
REF_FRAME      = TEME
TIME_SYSTEM    = UTC
MEAN_ELEMENT_THEORY = SGP/SGP4

EPOCH          = 2025-12-25T19:07:37.222176
MEAN_MOTION    = 15.17329729
ECCENTRICITY   = .0000971
INCLINATION    = 97.4403
RA_OF_ASC_NODE = 71.3283
ARG_OF_PERICENTER = 237.5694
MEAN_ANOMALY   = 122.5445

EPHEMERIS_TYPE = 0
CLASSIFICATION_TYPE = U
NORAD_CAT_ID   = 66762
ELEMENT_SET_NO = 999
REV_AT_EPOCH   = 410
BSTAR          = .45831E-3
MEAN_MOTION_DOT = .908E-4
MEAN_MOTION_DDOT = 0

CCSDS_OMM_VERS = 2.0
CREATION_DATE  = 
ORIGINATOR     = 

OBJECT_NAME    = HYDROGNSS-2
OBJECT_ID      = 2025-276DB
CENTER_NAME    = EARTH
REF_FRAME      = TEME
TIME_SYSTEM    = UTC
MEAN_ELEMENT_THEORY = SGP/SGP4

EPOCH          = 2025-12-25T19:04:21.419904
MEAN_MOTION    = 15.17449308
ECCENTRICITY   = .000163
INCLINATION    = 97.4407
RA_OF_ASC_NODE = 71.3355
ARG_OF_PERICENTER = 221.9246
MEAN_ANOMALY   = 138.1863

EPHEMERIS_TYPE = 0
CLASSIFICATION_TYPE = U
NORAD_CAT_ID   = 66763
ELEMENT_SET_NO = 999
REV_AT_EPOCH   = 410
BSTAR          = .20092E-3
MEAN_MOTION_DOT = .3954E-4
MEAN_MOTION_DDOT = 0

CCSDS_OMM_VERS = 2.0
CREATION_DATE  = 
ORIGINATOR     = 

OBJECT_NAME    = TRANSPORTER-15DC
OBJECT_ID      = 2025-276DC
CENTER_NAME    = EARTH
REF_FRAME      = TEME
TIME_SYSTEM    = UTC
MEAN_ELEMENT_THEORY = SGP/SGP4

EPOCH          = 2025-12-25T18:57:19.530432
MEAN_MOTION    = 15.17717948
ECCENTRICITY   = .0002332
INCLINATION    = 97.4401
RA_OF_ASC_NODE = 71.3357
ARG_OF_PERICENTER = 183.8557
MEAN_ANOMALY   = 176.2659

EPHEMERIS_TYPE = 0
CLASSIFICATION_TYPE = U
NORAD_CAT_ID   = 66764
ELEMENT_SET_NO = 999
REV_AT_EPOCH   = 410
BSTAR          = .46898E-3
MEAN_MOTION_DOT = .9397E-4
MEAN_MOTION_DDOT = 0

CCSDS_OMM_VERS = 2.0
CREATION_DATE  = 
ORIGINATOR     = 

OBJECT_NAME    = TRANSPORTER-15DD
OBJECT_ID      = 2025-276DD
CENTER_NAME    = EARTH
REF_FRAME      = TEME
TIME_SYSTEM    = UTC
MEAN_ELEMENT_THEORY = SGP/SGP4

EPOCH          = 2025-12-25T18:36:02.960064
MEAN_MOTION    = 15.18804437
ECCENTRICITY   = .0001988
INCLINATION    = 97.4414
RA_OF_ASC_NODE = 71.3618
ARG_OF_PERICENTER = 115.8266
MEAN_ANOMALY   = 244.3174

EPHEMERIS_TYPE = 0
CLASSIFICATION_TYPE = U
NORAD_CAT_ID   = 66765
ELEMENT_SET_NO = 999
REV_AT_EPOCH   = 410
BSTAR          = .63955E-3
MEAN_MOTION_DOT = .13254E-3
MEAN_MOTION_DDOT = 0

CCSDS_OMM_VERS = 2.0
CREATION_DATE  = 
ORIGINATOR     = 

OBJECT_NAME    = TRANSPORTER-15DE
OBJECT_ID      = 2025-276DE
CENTER_NAME    = EARTH
REF_FRAME      = TEME
TIME_SYSTEM    = UTC
MEAN_ELEMENT_THEORY = SGP/SGP4

EPOCH          = 2025-12-25T17:06:02.140992
MEAN_MOTION    = 15.18446815
ECCENTRICITY   = .0001979
INCLINATION    = 97.4356
RA_OF_ASC_NODE = 71.2726
ARG_OF_PERICENTER = 86.5212
MEAN_ANOMALY   = 273.6249

EPHEMERIS_TYPE = 0
CLASSIFICATION_TYPE = U
NORAD_CAT_ID   = 66766
ELEMENT_SET_NO = 999
REV_AT_EPOCH   = 409
BSTAR          = .35741E-3
MEAN_MOTION_DOT = .7296E-4
MEAN_MOTION_DDOT = 0

CCSDS_OMM_VERS = 2.0
CREATION_DATE  = 
ORIGINATOR     = 

OBJECT_NAME    = TRANSPORTER-15DF
OBJECT_ID      = 2025-276DF
CENTER_NAME    = EARTH
REF_FRAME      = TEME
TIME_SYSTEM    = UTC
MEAN_ELEMENT_THEORY = SGP/SGP4

EPOCH          = 2025-12-25T18:42:21.525120
MEAN_MOTION    = 15.18355628
ECCENTRICITY   = .0002047
INCLINATION    = 97.4364
RA_OF_ASC_NODE = 71.3387
ARG_OF_PERICENTER = 86.3550
MEAN_ANOMALY   = 273.7918

EPHEMERIS_TYPE = 0
CLASSIFICATION_TYPE = U
NORAD_CAT_ID   = 66767
ELEMENT_SET_NO = 999
REV_AT_EPOCH   = 410
BSTAR          = .26204E-3
MEAN_MOTION_DOT = .5316E-4
MEAN_MOTION_DDOT = 0

CCSDS_OMM_VERS = 2.0
CREATION_DATE  = 
ORIGINATOR     = 

OBJECT_NAME    = TRANSPORTER-15DG
OBJECT_ID      = 2025-276DG
CENTER_NAME    = EARTH
REF_FRAME      = TEME
TIME_SYSTEM    = UTC
MEAN_ELEMENT_THEORY = SGP/SGP4

EPOCH          = 2025-12-25T18:38:45.772224
MEAN_MOTION    = 15.18568494
ECCENTRICITY   = .000214
INCLINATION    = 97.4350
RA_OF_ASC_NODE = 71.3378
ARG_OF_PERICENTER = 74.9698
MEAN_ANOMALY   = 285.1773

EPHEMERIS_TYPE = 0
CLASSIFICATION_TYPE = U
NORAD_CAT_ID   = 66768
ELEMENT_SET_NO = 999
REV_AT_EPOCH   = 410
BSTAR          = .53438E-3
MEAN_MOTION_DOT = .10985E-3
MEAN_MOTION_DDOT = 0

CCSDS_OMM_VERS = 2.0
CREATION_DATE  = 
ORIGINATOR     = 

OBJECT_NAME    = TRANSPORTER-15DH
OBJECT_ID      = 2025-276DH
CENTER_NAME    = EARTH
REF_FRAME      = TEME
TIME_SYSTEM    = UTC
MEAN_ELEMENT_THEORY = SGP/SGP4

EPOCH          = 2025-12-25T18:40:22.706976
MEAN_MOTION    = 15.18438115
ECCENTRICITY   = .0002738
INCLINATION    = 97.4411
RA_OF_ASC_NODE = 71.3565
ARG_OF_PERICENTER = 102.3679
MEAN_ANOMALY   = 257.7862

EPHEMERIS_TYPE = 0
CLASSIFICATION_TYPE = U
NORAD_CAT_ID   = 66769
ELEMENT_SET_NO = 999
REV_AT_EPOCH   = 410
BSTAR          = .28657E-3
MEAN_MOTION_DOT = .5834E-4
MEAN_MOTION_DDOT = 0

CCSDS_OMM_VERS = 2.0
CREATION_DATE  = 
ORIGINATOR     = 

OBJECT_NAME    = TRANSPORTER-15DJ
OBJECT_ID      = 2025-276DJ
CENTER_NAME    = EARTH
REF_FRAME      = TEME
TIME_SYSTEM    = UTC
MEAN_ELEMENT_THEORY = SGP/SGP4

EPOCH          = 2025-12-25T17:05:03.917760
MEAN_MOTION    = 15.18411636
ECCENTRICITY   = .0003323
INCLINATION    = 97.4444
RA_OF_ASC_NODE = 71.3028
ARG_OF_PERICENTER = 116.9373
MEAN_ANOMALY   = 243.2201

EPHEMERIS_TYPE = 0
CLASSIFICATION_TYPE = U
NORAD_CAT_ID   = 66770
ELEMENT_SET_NO = 999
REV_AT_EPOCH   = 409
BSTAR          = .55773E-3
MEAN_MOTION_DOT = .11418E-3
MEAN_MOTION_DDOT = 0

CCSDS_OMM_VERS = 2.0
CREATION_DATE  = 
ORIGINATOR     = 

OBJECT_NAME    = TRANSPORTER-15DK
OBJECT_ID      = 2025-276DK
CENTER_NAME    = EARTH
REF_FRAME      = TEME
TIME_SYSTEM    = UTC
MEAN_ELEMENT_THEORY = SGP/SGP4

EPOCH          = 2025-12-25T17:04:13.190592
MEAN_MOTION    = 15.18506181
ECCENTRICITY   = .0003051
INCLINATION    = 97.4437
RA_OF_ASC_NODE = 71.3012
ARG_OF_PERICENTER = 109.2122
MEAN_ANOMALY   = 250.9443

EPHEMERIS_TYPE = 0
CLASSIFICATION_TYPE = U
NORAD_CAT_ID   = 66771
ELEMENT_SET_NO = 999
REV_AT_EPOCH   = 409
BSTAR          = .48639E-3
MEAN_MOTION_DOT = .9974E-4
MEAN_MOTION_DDOT = 0

