TRANSPORTER-15CY        
1 66760U 25276CY  25359.71607051  .00006567  00000+0  32414-3 0  9998
2 66760  97.4392  71.2801 0001753 112.2879 247.8541 15.18222168  4096
TRANSPORTER-15CZ        
1 66761U 25276CZ  25359.77888115  .00010743  00000+0  52315-3 0  9990
2 66761  97.4390  71.3487 0001742 121.8213 238.3191 15.18537851  4108
HYDROGNSS-1             
1 66762U 25276DA  25359.79695859  .00009080  00000+0  45831-3 0  9991
2 66762  97.4403  71.3283 0000971 237.5694 122.5445 15.17329729  4107
HYDROGNSS-2             
1 66763U 25276DB  25359.79469236  .00003954  00000+0  20092-3 0  9996
2 66763  97.4407  71.3355 0001630 221.9246 138.1863 15.17449308  4108
TRANSPORTER-15DC        
1 66764U 25276DC  25359.78980938  .00009397  00000+0  46898-3 0  9992
2 66764  97.4401  71.3357 0002332 183.8557 176.2659 15.17717948  4100
TRANSPORTER-15DD        
1 66765U 25276DD  25359.77503426  .00013254  00000+0  63955-3 0  9995
2 66765  97.4414  71.3618 0001988 115.8266 244.3174 15.18804437  4103
TRANSPORTER-15DE        
1 66766U 25276DE  25359.71252478  .00007296  00000+0  35741-3 0  9999
2 66766  97.4356  71.2726 0001979  86.5212 273.6249 15.18446815  4091
TRANSPORTER-15DF        
1 66767U 25276DF  25359.77941580  .00005316  00000+0  26204-3 0  9990
2 66767  97.4364  71.3387 0002047  86.3550 273.7918 15.18355628  4102
TRANSPORTER-15DG        
1 66768U 25276DG  25359.77691866  .00010985  00000+0  53438-3 0  9997
2 66768  97.4350  71.3378 0002140  74.9698 285.1773 15.18568494  4101
TRANSPORTER-15DH        
1 66769U 25276DH  25359.77804059  .00005834  00000+0  28657-3 0  9990
2 66769  97.4411  71.3565 0002738 102.3679 257.7862 15.18438115  4106
TRANSPORTER-15DJ        
1 66770U 25276DJ  25359.71185090  .00011418  00000+0  55773-3 0  9997
2 66770  97.4444  71.3028 0003323 116.9373 243.2201 15.18411636  4095
TRANSPORTER-15DK        
1 66771U 25276DK  25359.71126378  .00009974  00000+0  48639-3 0  9999
2 66771  97.4437  71.3012 0003051 109.2122 250.9443 15.18506181  4099
